GLOBALSTAR M045         
1 25676U 99019A   24188.49979216 -.00000065  00000+0  25022-3 0  9999
2 25676  51.9939 210.5353 0000563 253.5694 271.9606 12.27040831150950
GLOBALSTAR M019         
1 25677U 99019B   24188.51054413  .00000015  00000+0  10940-2 0  9992
2 25677  51.9896 316.5497 0000638  33.0870  44.2046 12.13857558143160
GLOBALSTAR M044         
1 25678U 99019C   24188.88667713 -.00000051  00000+0  45852-3 0  9998
2 25678  51.9939 223.6668 0006314  95.6430  75.9346 11.90234779130180
GLOBALSTAR M042         
1 25679U 99019D   24188.57159310 -.00000067  00000+0  23767-3 0  9992
2 25679  52.0030 306.6221 0002216 305.9828  67.5348 12.22064184143008
GLOBALSTAR M025         
1 25770U 99031A   24188.56456273 -.00000061  00000+0  20993-3 0  9997
2 25770  51.9794 239.9297 0001545 274.0869 235.7109 11.22551007442898
GLOBALSTAR M049         
1 25771U 99031B   24188.57279900 -.00000096  00000+0 -10574-2 0  9991
2 25771  51.9863 257.3051 0003186 158.7459 201.3470 11.12106528 78971
GLOBALSTAR M047         
1 25772U 99031C   24188.60071786 -.00000052  00000+0  47878-3 0  9997
2 25772  51.9843 287.2280 0016033  31.1213 329.0540 11.31920811431972
GLOBALSTAR M052         
1 25773U 99031D   24188.56069013 -.00000097  00000+0 -10469-2 0  9998
2 25773  51.9895  10.8670 0002141 336.4638  94.1147 11.15051945439954
